{
  "type": "FeatureCollection",
  "features": [
    {
      "type": "Feature",
      "properties": {
        "norad_id": 36744,
        "name": "COMS 1",
        "group": "weather",
        "lat": 2.3841067864940872,
        "lon": 110.58895817337937,
        "alt_km": 35788.84475969738,
        "timestamp": "2025-12-21T16:47:54.371550+00:00",
        "meta_object_name": "COMS 1",
        "meta_object_id": "2010-032A",
        "meta_epoch": "2025-12-21T12:44:43.470816",
        "meta_mean_motion": 1.00271755,
        "meta_eccentricity": 7.24e-05,
        "meta_inclination": 4.3602,
        "meta_ra_of_asc_node": 77.8993,
        "meta_arg_of_pericenter": 204.235,
        "meta_mean_anomaly": 127.5743,
        "meta_ephemeris_type": 0,
        "meta_classification_type": "U",
        "meta_norad_cat_id": 36744,
        "meta_element_set_no": 999,
        "meta_rev_at_epoch": 4930,
        "meta_bstar": 0,
        "meta_mean_motion_dot": -3.25e-06,
        "meta_mean_motion_ddot": 0,
        "tle_line1": "1 36744U 10032A   25355.53105869 -.00000325  00000+0  00000+0 0  9996",
        "tle_line2": "2 36744   4.3602  77.8993 0000724 204.2350 127.5743  1.00271755 49306"
      },
      "geometry": {
        "type": "Point",
        "coordinates": [
          110.58895817337937,
          2.3841067864940872
        ]
      }
    },
    {
      "type": "Feature",
      "properties": {
        "norad_id": 37214,
        "name": "FENGYUN 3B",
        "group": "weather",
        "lat": -71.97519808722161,
        "lon": 64.84947686717857,
        "alt_km": 839.5159892905194,
        "timestamp": "2025-12-21T16:47:54.371565+00:00",
        "meta_object_name": "FENGYUN 3B",
        "meta_object_id": "2010-059A",
        "meta_epoch": "2025-12-21T12:41:57.099840",
        "meta_mean_motion": 14.14792543,
        "meta_eccentricity": 0.0021652,
        "meta_inclination": 98.9897,
        "meta_ra_of_asc_node": 35.5679,
        "meta_arg_of_pericenter": 332.7957,
        "meta_mean_anomaly": 163.6511,
        "meta_ephemeris_type": 0,
        "meta_classification_type": "U",
        "meta_norad_cat_id": 37214,
        "meta_element_set_no": 999,
        "meta_rev_at_epoch": 78230,
        "meta_bstar": 9.751e-05,
        "meta_mean_motion_dot": 1.43e-06,
        "meta_mean_motion_ddot": 0,
        "tle_line1": "1 37214U 10059A   25355.52913310  .00000143  00000+0  97510-4 0  9999",
        "tle_line2": "2 37214  98.9897  35.5679 0021652 332.7957 163.6511 14.14792543782309"
      },
      "geometry": {
        "type": "Point",
        "coordinates": [
          64.84947686717857,
          -71.97519808722161
        ]
      }
    },
    {
      "type": "Feature",
      "properties": {
        "norad_id": 37849,
        "name": "SUOMI NPP",
        "group": "weather",
        "lat": -77.65739403086899,
        "lon": -22.118477046045854,
        "alt_km": 836.0237208387671,
        "timestamp": "2025-12-21T16:47:54.371600+00:00",
        "meta_object_name": "SUOMI NPP",
        "meta_object_id": "2011-061A",
        "meta_epoch": "2025-12-17T23:31:21.474624",
        "meta_mean_motion": 14.19515682,
        "meta_eccentricity": 0.00023932,
        "meta_inclination": 98.7779,
        "meta_ra_of_asc_node": 289.2746,
        "meta_arg_of_pericenter": 111.1248,
        "meta_mean_anomaly": 249.0184,
        "meta_ephemeris_type": 0,
        "meta_classification_type": "U",
        "meta_norad_cat_id": 37849,
        "meta_element_set_no": 999,
        "meta_rev_at_epoch": 73273,
        "meta_bstar": 4.8615036e-05,
        "meta_mean_motion_dot": 5.8e-07,
        "meta_mean_motion_ddot": 0,
        "tle_line1": "1 37849U 11061A   25351.98010966  .00000058  00000+0  48615-4 0  9995",
        "tle_line2": "2 37849  98.7779 289.2746 0002393 111.1248 249.0184 14.19515682732735"
      },
      "geometry": {
        "type": "Point",
        "coordinates": [
          -22.118477046045854,
          -77.65739403086899
        ]
      }
    },
    {
      "type": "Feature",
      "properties": {
        "norad_id": 38552,
        "name": "METEOSAT-10 (MSG-3)",
        "group": "weather",
        "lat": -4.180483970228248,
        "lon": -17.166569244693424,
        "alt_km": 35782.349710963594,
        "timestamp": "2025-12-21T16:47:54.371615+00:00",
        "meta_object_name": "METEOSAT-10 (MSG-3)",
        "meta_object_id": "2012-035B",
        "meta_epoch": "2025-12-21T08:03:51.373728",
        "meta_mean_motion": 1.00276748,
        "meta_eccentricity": 7.02e-05,
        "meta_inclination": 4.2476,
        "meta_ra_of_asc_node": 61.6997,
        "meta_arg_of_pericenter": 268.1719,
        "meta_mean_anomaly": 241.5558,
        "meta_ephemeris_type": 0,
        "meta_classification_type": "U",
        "meta_norad_cat_id": 38552,
        "meta_element_set_no": 999,
        "meta_rev_at_epoch": 4907,
        "meta_bstar": 0,
        "meta_mean_motion_dot": 1.6e-07,
        "meta_mean_motion_ddot": 0,
        "tle_line1": "1 38552U 12035B   25355.33601127  .00000016  00000+0  00000+0 0  9992",
        "tle_line2": "2 38552   4.2476  61.6997 0000702 268.1719 241.5558  1.00276748 49074"
      },
      "geometry": {
        "type": "Point",
        "coordinates": [
          -17.166569244693424,
          -4.180483970228248
        ]
      }
    },
    {
      "type": "Feature",
      "properties": {
        "norad_id": 38771,
        "name": "METOP-B",
        "group": "weather",
        "lat": -11.924870737858578,
        "lon": -136.34214608557434,
        "alt_km": 824.0169294522802,
        "timestamp": "2025-12-21T16:47:54.371626+00:00",
        "meta_object_name": "METOP-B",
        "meta_object_id": "2012-049A",
        "meta_epoch": "2025-12-21T10:49:48.935712",
        "meta_mean_motion": 14.21411461,
        "meta_eccentricity": 0.0003188,
        "meta_inclination": 98.6786,
        "meta_ra_of_asc_node": 45.2619,
        "meta_arg_of_pericenter": 125.7097,
        "meta_mean_anomaly": 234.4377,
        "meta_ephemeris_type": 0,
        "meta_classification_type": "U",
        "meta_norad_cat_id": 38771,
        "meta_element_set_no": 999,
        "meta_rev_at_epoch": 68801,
        "meta_bstar": 7.1671e-05,
        "meta_mean_motion_dot": 1.13e-06,
        "meta_mean_motion_ddot": 0,
        "tle_line1": "1 38771U 12049A   25355.45126083  .00000113  00000+0  71671-4 0  9991",
        "tle_line2": "2 38771  98.6786  45.2619 0003188 125.7097 234.4377 14.21411461688018"
      },
      "geometry": {
        "type": "Point",
        "coordinates": [
          -136.34214608557434,
          -11.924870737858578
        ]
      }
    },
    {
      "type": "Feature",
      "properties": {
        "norad_id": 39216,
        "name": "INSAT-3D",
        "group": "weather",
        "lat": 0.6926896758334037,
        "lon": 111.95538376466307,
        "alt_km": 35789.16444167773,
        "timestamp": "2025-12-21T16:47:54.371639+00:00",
        "meta_object_name": "INSAT-3D",
        "meta_object_id": "2013-038B",
        "meta_epoch": "2025-12-21T12:45:10.011168",
        "meta_mean_motion": 1.00276515,
        "meta_eccentricity": 0.0001801,
        "meta_inclination": 1.4662,
        "meta_ra_of_asc_node": 84.8978,
        "meta_arg_of_pericenter": 152.7751,
        "meta_mean_anomaly": 173.4597,
        "meta_ephemeris_type": 0,
        "meta_classification_type": "U",
        "meta_norad_cat_id": 39216,
        "meta_element_set_no": 999,
        "meta_rev_at_epoch": 4529,
        "meta_bstar": 0,
        "meta_mean_motion_dot": -3.17e-06,
        "meta_mean_motion_ddot": 0,
        "tle_line1": "1 39216U 13038B   25355.53136587 -.00000317  00000+0  00000+0 0  9994",
        "tle_line2": "2 39216   1.4662  84.8978 0001801 152.7751 173.4597  1.00276515 45297"
      },
      "geometry": {
        "type": "Point",
        "coordinates": [
          111.95538376466307,
          0.6926896758334037
        ]
      }
    },
    {
      "type": "Feature",
      "properties": {
        "norad_id": 39260,
        "name": "FENGYUN 3C",
        "group": "weather",
        "lat": -72.77559322268397,
        "lon": 124.1869120094342,
        "alt_km": 846.2614530194405,
        "timestamp": "2025-12-21T16:47:54.371650+00:00",
        "meta_object_name": "FENGYUN 3C",
        "meta_object_id": "2013-052A",
        "meta_epoch": "2025-12-21T12:12:22.767840",
        "meta_mean_motion": 14.1569875,
        "meta_eccentricity": 0.0014768,
        "meta_inclination": 98.4773,
        "meta_ra_of_asc_node": 332.7602,
        "meta_arg_of_pericenter": 170.5554,
        "meta_mean_anomaly": 189.5901,
        "meta_ephemeris_type": 0,
        "meta_classification_type": "U",
        "meta_norad_cat_id": 39260,
        "meta_element_set_no": 999,
        "meta_rev_at_epoch": 63342,
        "meta_bstar": 4.8563e-05,
        "meta_mean_motion_dot": 5.4e-07,
        "meta_mean_motion_ddot": 0,
        "tle_line1": "1 39260U 13052A   25355.50859685  .00000054  00000+0  48563-4 0  9995",
        "tle_line2": "2 39260  98.4773 332.7602 0014768 170.5554 189.5901 14.15698750633423"
      },
      "geometry": {
        "type": "Point",
        "coordinates": [
          124.1869120094342,
          -72.77559322268397
        ]
      }
    }
  ]
}